NORAD_CAT_ID,OBJECT_NAME,OBJECT_TYPE,EPOCH,MEAN_MOTION,ECCENTRICITY,INCLINATION,RA_OF_ASC_NODE,ARG_OF_PERICENTER,MEAN_ANOMALY,BSTAR,MEAN_MOTION_DOT,MEAN_MOTION_DDOT,TLE_LINE0,TLE_LINE1,TLE_LINE2,SEMIMAJOR_AXIS,PERIOD,APOGEE,PERIGEE,DECAYED
52633.0,STARLINK-3994,PAYLOAD,2024-03-31 12:35:25,15.0884484,0.0001536,53.2154,208.1989,77.3411,282.7752,0.00020061,2.907e-05,0.0,0 STARLINK-3994,1 52633U 22052AM  24091.52460244  .00002907  00000-0  20061-3 0  9993,2 52633  53.2154 208.1989 0001536  77.3411 282.7752 15.08844840104466,6917.866,95.437,540.793,538.668,0.0
52633.0,STARLINK-3994,PAYLOAD,2024-03-31 14:10:48,15.08847746,0.0001504,53.2157,207.9005,81.9563,278.1599,0.0002482,3.665e-05,0.0,0 STARLINK-3994,1 52633U 22052AM  24091.59084098  .00003665  00000-0  24820-3 0  9998,2 52633  53.2157 207.9005 0001504  81.9563 278.1599 15.08847746104106,6917.857,95.437,540.762,538.681,0.0
52633.0,STARLINK-3994,PAYLOAD,2024-04-01 12:26:13,15.08836947,0.0001615,53.218,203.7387,92.4662,267.6515,0.00010337,1.357e-05,0.0,0 STARLINK-3994,1 52633U 22052AM  24092.51820819  .00001357  00000-0  10337-3 0  9994,2 52633  53.2180 203.7387 0001615  92.4662 267.6515 15.08836947104617,6917.89,95.438,540.872,538.637,0.0
52633.0,STARLINK-3994,PAYLOAD,2024-04-01 14:01:36,15.08836168,0.0001405,53.2163,203.4414,84.8326,275.2826,0.00013099,1.797e-05,0.0,0 STARLINK-3994,1 52633U 22052AM  24092.58444824  .00001797  00000-0  13099-3 0  9995,2 52633  53.2163 203.4414 0001405  84.8326 275.2826 15.08836168104250,6917.892,95.438,540.729,538.785,0.0
52633.0,STARLINK-3994,PAYLOAD,2024-04-02 13:52:23,15.08838631,0.0001426,53.2169,198.9789,91.347,268.7686,0.00013871,1.92e-05,0.0,0 STARLINK-3994,1 52633U 22052AM  24093.57804982  .00001920  00000-0  13871-3 0  9996,2 52633  53.2169 198.9789 0001426  91.3470 268.7686 15.08838631104400,6917.885,95.438,540.736,538.763,0.0
52633.0,STARLINK-3994,PAYLOAD,2024-04-02 17:03:09,15.08840974,0.0001506,53.2177,198.3852,94.1693,265.9472,0.00012239,1.66e-05,0.0,0 STARLINK-3994,1 52633U 22052AM  24093.71052885  .00001660  00000-0  12239-3 0  9997,2 52633  53.2177 198.3852 0001506  94.1693 265.9472 15.08840974104798,6917.877,95.437,540.784,538.701,0.0
52633.0,STARLINK-3994,PAYLOAD,2024-04-03 13:43:10,15.08842695,0.0001479,53.2174,194.5209,98.1457,261.9702,0.00022925,3.363e-05,0.0,0 STARLINK-3994,1 52633U 22052AM  24094.57164978  .00003363  00000-0  22925-3 0  9994,2 52633  53.2174 194.5209 0001479  98.1457 261.9702 15.08842695104558,6917.872,95.437,540.76,538.714,0.0
52633.0,STARLINK-3994,PAYLOAD,2024-04-03 16:53:56,15.08845872,0.0001492,53.2173,193.9259,97.4802,262.636,0.00022932,3.364e-05,0.0,0 STARLINK-3994,1 52633U 22052AM  24094.70412783  .00003364  00000-0  22932-3 0  9998,2 52633  53.2173 193.9259 0001492  97.4802 262.6360 15.08845872104576,6917.862,95.437,540.76,538.695,0.0
52633.0,STARLINK-3994,PAYLOAD,2024-04-04 13:33:57,15.08841699,0.0001502,53.2167,190.0608,103.9585,256.1575,0.00010303,1.352e-05,0.0,0 STARLINK-3994,1 52633U 22052AM  24095.56524877  .00001352  00000-0  10303-3 0  9995,2 52633  53.2167 190.0608 0001502 103.9585 256.1575 15.08841699105073,6917.875,95.437,540.779,538.701,0.0
52633.0,STARLINK-3994,PAYLOAD,2024-04-05 13:24:43,15.08853947,0.0001392,53.2163,185.599,92.4639,267.6512,0.0001701,2.421e-05,0.0,0 STARLINK-3994,1 52633U 22052AM  24096.55883916  .00002421  00000-0  17010-3 0  9997,2 52633  53.2163 185.5990 0001392  92.4639 267.6512 15.08853947104853,6917.838,95.437,540.666,538.74,0.0
52633.0,STARLINK-3994,PAYLOAD,2024-04-06 11:40:08,15.08842152,0.0001438,53.2171,181.4362,80.1095,280.006,3.1364e-05,2.11e-06,0.0,0 STARLINK-3994,1 52633U 22052AM  24097.48620481  .00000211  00000-0  31364-4 0  9990,2 52633  53.2171 181.4362 0001438  80.1095 280.0060 15.08842152105361,6917.874,95.437,540.734,538.744,0.0
52633.0,STARLINK-3994,PAYLOAD,2024-04-06 22:47:50,15.0884243,0.0001433,53.2175,179.3545,81.8893,278.2262,5.1004e-05,5.24e-06,0.0,0 STARLINK-3994,1 52633U 22052AM  24097.94988464  .00000524  00000-0  51004-4 0  9999,2 52633  53.2175 179.3545 0001433  81.8893 278.2262 15.08842430105062,6917.873,95.437,540.729,538.747,0.0
52633.0,STARLINK-3994,PAYLOAD,2024-04-07 11:30:55,15.08840184,0.00015,53.2158,176.9746,86.6579,273.4585,1.8436e-05,5e-08,0.0,0 STARLINK-3994,1 52633U 22052AM  24098.47980644  .00000005  00000-0  18436-4 0  9996,2 52633  53.2158 176.9746 0001500  86.6579 273.4585 15.08840184105146,6917.88,95.438,540.783,538.707,0.0
52633.0,STARLINK-3994,PAYLOAD,2024-04-07 22:38:37,15.08842286,0.0001478,53.2165,174.8921,90.7149,269.4013,5.1637e-06,-2.06e-06,0.0,0 STARLINK-3994,1 52633U 22052AM  24098.94348562 -.00000206  00000-0  51637-5 0  9990,2 52633  53.2165 174.8921 0001478  90.7149 269.4013 15.08842286105213,6917.873,95.437,540.761,538.716,0.0
52633.0,STARLINK-3994,PAYLOAD,2024-04-08 14:32:28,15.08839103,0.000162,53.2159,171.9169,95.5211,264.5966,9.4696e-05,1.219e-05,0.0,0 STARLINK-3994,1 52633U 22052AM  24099.60588849  .00001219  00000-0  94696-4 0  9993,2 52633  53.2159 171.9169 0001620  95.5211 264.5966 15.08839103105318,6917.883,95.438,540.869,538.627,0.0
52633.0,STARLINK-3994,PAYLOAD,2024-04-08 22:29:24,15.08838801,0.0001612,53.2165,170.4314,94.5272,265.5905,8.4083e-05,1.05e-05,0.0,0 STARLINK-3994,1 52633U 22052AM  24099.93708946  .00001050  00000-0  84083-4 0  9993,2 52633  53.2165 170.4314 0001612  94.5272 265.5905 15.08838801105361,6917.884,95.438,540.864,538.634,0.0
52633.0,STARLINK-3994,PAYLOAD,2024-04-09 11:12:29,15.0884359,0.0001565,53.2158,168.0524,92.219,267.8981,0.00012502,1.702e-05,0.0,0 STARLINK-3994,1 52633U 22052AM  24100.46700527  .00001702  00000-0  12502-3 0  9991,2 52633  53.2158 168.0524 0001565  92.2190 267.8981 15.08843590105810,6917.869,95.437,540.817,538.652,0.0
52633.0,STARLINK-3994,PAYLOAD,2024-04-10 04:41:44,15.08839758,0.0001524,53.2165,164.7817,93.8564,266.2602,0.00010417,1.37e-05,0.0,0 STARLINK-3994,1 52633U 22052AM  24101.19564827  .00001370  00000-0  10417-3 0  9997,2 52633  53.2165 164.7817 0001524  93.8564 266.2602 15.08839758105929,6917.881,95.438,540.8,538.692,0.0
52633.0,STARLINK-3994,PAYLOAD,2024-04-10 11:03:16,15.08833903,0.0001359,53.2162,163.5929,93.4035,266.7112,0.00029653,4.434e-05,0.0,0 STARLINK-3994,1 52633U 22052AM  24101.46060911  .00004434  00000-0  29653-3 0  9998,2 52633  53.2162 163.5929 0001359  93.4035 266.7112 15.08833903105592,6917.899,95.438,540.704,538.824,0.0
52633.0,STARLINK-3994,PAYLOAD,2024-04-10 20:35:40,15.08778135,0.0001842,53.2167,161.8086,91.3521,268.7682,-0.00044049,-7.28e-05,0.0,0 STARLINK-3994,1 52633U 22052AM  24101.85811110 -.00007280  00000-0 -44049-3 0  9996,2 52633  53.2167 161.8086 0001842  91.3521 268.7682 15.08778135106024,6918.069,95.441,541.209,538.66,0.0
52633.0,STARLINK-3994,PAYLOAD,2024-04-11 04:32:33,15.08824049,0.0001367,53.2167,160.3241,93.3243,266.7906,-3.385e-05,-8.26e-06,0.0,0 STARLINK-3994,1 52633U 22052AM  24102.18927670 -.00000826  00000-0 -33850-4 0  9990,2 52633  53.2167 160.3241 0001367  93.3243 266.7906 15.08824049106074,6917.929,95.439,540.74,538.848,0.0
52633.0,STARLINK-3994,PAYLOAD,2024-04-11 10:54:05,15.08838203,0.0001327,53.2169,159.1337,91.7761,268.3383,7.9307e-05,9.74e-06,0.0,0 STARLINK-3994,1 52633U 22052AM  24102.45422481  .00000974  00000-0  79307-4 0  9999,2 52633  53.2169 159.1337 0001327  91.7761 268.3383 15.08838203106110,6917.886,95.438,540.669,538.833,0.0
52633.0,STARLINK-3994,PAYLOAD,2024-04-11 20:26:23,15.08846137,0.000124,53.2168,157.3484,88.5248,271.5886,0.00016375,2.32e-05,0.0,0 STARLINK-3994,1 52633U 22052AM  24102.85165848  .00002320  00000-0  16375-3 0  9996,2 52633  53.2168 157.3484 0001240  88.5248 271.5886 15.08846137106175,6917.862,95.437,540.584,538.869,0.0
52633.0,STARLINK-3994,PAYLOAD,2024-04-12 10:44:51,15.08861172,0.0001322,53.2155,154.6726,90.811,269.3034,0.00046654,7.149e-05,0.0,0 STARLINK-3994,1 52633U 22052AM  24103.44781393  .00007149  00000-0  46654-3 0  9998,2 52633  53.2155 154.6726 0001322  90.8110 269.3034 15.08861172105899,6917.816,95.436,540.595,538.766,0.0
52633.0,STARLINK-3994,PAYLOAD,2024-04-13 10:35:38,15.08852811,0.0001279,53.2145,150.2109,82.4855,277.6282,9.4187e-05,1.212e-05,0.0,0 STARLINK-3994,1 52633U 22052AM  24104.44141595  .00001212  00000-0  94187-4 0  9993,2 52633  53.2145 150.2109 0001279  82.4855 277.6282 15.08852811106415,6917.841,95.437,540.591,538.821,0.0
52633.0,STARLINK-3994,PAYLOAD,2024-04-14 10:26:25,15.0885576,0.0001526,53.2173,145.7526,85.0394,275.0773,-0.00010504,-1.96e-05,0.0,0 STARLINK-3994,1 52633U 22052AM  24105.43501488 -.00001960  00000-0 -10504-3 0  9996,2 52633  53.2173 145.7526 0001526  85.0394 275.0773 15.08855760106569,6917.832,95.437,540.753,538.642,0.0
52633.0,STARLINK-3994,PAYLOAD,2024-04-15 02:20:16,15.08843607,0.0001683,53.2174,142.7801,75.4338,284.6841,7.2102e-05,8.6e-06,0.0,0 STARLINK-3994,1 52633U 22052AM  24106.09741590  .00000860  00000-0  72102-4 0  9998,2 52633  53.2174 142.7801 0001683  75.4338 284.6841 15.08843607106668,6917.869,95.437,540.899,538.57,0.0
52633.0,STARLINK-3994,PAYLOAD,2024-04-15 08:41:49,15.08843547,0.0001686,53.217,141.5901,76.4542,283.6637,6.3766e-05,7.27e-06,0.0,0 STARLINK-3994,1 52633U 22052AM  24106.36237567  .00000727  00000-0  63766-4 0  9990,2 52633  53.2170 141.5901 0001686  76.4542 283.6637 15.08843547106332,6917.87,95.437,540.901,538.568,0.0
52633.0,STARLINK-3994,PAYLOAD,2024-04-15 19:49:31,15.08844363,0.0001641,53.2168,139.5076,78.8731,281.2445,8.5253e-05,1.069e-05,0.0,0 STARLINK-3994,1 52633U 22052AM  24106.82605390  .00001069  00000-0  85253-4 0  9999,2 52633  53.2168 139.5076 0001641  78.8731 281.2445 15.08844363106402,6917.867,95.437,540.867,538.597,0.0
52633.0,STARLINK-3994,PAYLOAD,2024-04-16 11:43:22,15.08847804,0.0001662,53.217,136.5329,90.2245,269.8937,0.00013024,1.786e-05,0.0,0 STARLINK-3994,1 52633U 22052AM  24107.48845074  .00001786  00000-0  13024-3 0  9999,2 52633  53.2170 136.5329 0001662  90.2245 269.8937 15.08847804106876,6917.857,95.437,540.871,538.572,0.0
